{
    "links": {
        "self": "http://www.neowsapp.com/rest/v1/neo/3726665?api_key=iIulBulltgU6a56xZRHN4H3l9WmuAYTsLGpBGhQ2"
    },
    "id": "3726665",
    "neo_reference_id": "3726665",
    "name": "(2015 QF9)",
    "designation": "2015 QF9",
    "nasa_jpl_url": "http://ssd.jpl.nasa.gov/sbdb.cgi?sstr=3726665",
    "absolute_magnitude_h": 21.2,
    "estimated_diameter": {
        "kilometers": {
            "estimated_diameter_min": 0.1529519353,
            "estimated_diameter_max": 0.3420109247
        },
        "meters": {
            "estimated_diameter_min": 152.9519353442,
            "estimated_diameter_max": 342.0109247198
        },
        "miles": {
            "estimated_diameter_min": 0.095039897,
            "estimated_diameter_max": 0.2125156703
        },
        "feet": {
            "estimated_diameter_min": 501.8108275547,
            "estimated_diameter_max": 1122.0831222578
        }
    },
    "is_potentially_hazardous_asteroid": false,
    "close_approach_data": [
        {
            "close_approach_date": "1929-07-20",
            "close_approach_date_full": "1929-Jul-20 00:10",
            "epoch_date_close_approach": -1276559400000,
            "relative_velocity": {
                "kilometers_per_second": "4.8626738208",
                "kilometers_per_hour": "17505.6257550172",
                "miles_per_hour": "10877.3150698328"
            },
            "miss_distance": {
                "astronomical": "1.9125474872",
                "lunar": "743.9809725208",
                "kilometers": "286113030.358972264",
                "miles": "177782393.1859506832"
            },
            "orbiting_body": "Juptr"
        },
        {
            "close_approach_date": "1935-05-03",
            "close_approach_date_full": "1935-May-03 17:15",
            "epoch_date_close_approach": -1093934700000,
            "relative_velocity": {
                "kilometers_per_second": "16.9006594649",
                "kilometers_per_hour": "60842.3740735403",
                "miles_per_hour": "37805.0851569728"
            },
            "miss_distance": {
                "astronomical": "0.4057749041",
                "lunar": "157.8464376949",
                "kilometers": "60703061.352814267",
                "miles": "37719133.2651882046"
            },
            "orbiting_body": "Earth"
        },
        {
            "close_approach_date": "2011-07-27",
            "close_approach_date_full": "2011-Jul-27 12:02",
            "epoch_date_close_approach": 1311768120000,
            "relative_velocity": {
                "kilometers_per_second": "17.8549102986",
                "kilometers_per_hour": "64277.6770749474",
                "miles_per_hour": "39939.6488469305"
            },
            "miss_distance": {
                "astronomical": "0.4764578864",
                "lunar": "185.3421178096",
                "kilometers": "71277084.950141968",
                "miles": "44289526.8553684384"
            },
            "orbiting_body": "Earth"
        },
        {
            "close_approach_date": "2015-05-13",
            "close_approach_date_full": "2015-May-13 07:19",
            "epoch_date_close_approach": 1431501540000,
            "relative_velocity": {
                "kilometers_per_second": "14.9534023833",
                "kilometers_per_hour": "53832.2485799999",
                "miles_per_hour": "33449.2657912783"
            },
            "miss_distance": {
                "astronomical": "0.3980743559",
                "lunar": "154.8509244451",
                "kilometers": "59551075.744261933",
                "miles": "37003322.6006153554"
            },
            "orbiting_body": "Earth"
        }
    ],
    "orbital_data": {
        "orbit_id": "7",
        "orbit_determination_date": "2017-04-06 08:32:15",
        "first_observation_date": "2015-08-21",
        "last_observation_date": "2015-09-17",
        "data_arc_in_days": 27,
        "observations_used": 24,
        "orbit_uncertainty": "7",
        "minimum_orbit_intersection": ".109476",
        "jupiter_tisserand_invariant": "3.272",
        "epoch_osculation": "2459000.5",
        "eccentricity": ".5417408798857574",
        "semi_major_axis": "2.455120093982181",
        "inclination": "3.478450594884124",
        "ascending_node_longitude": "260.361886247175",
        "orbital_period": "1405.100984528485",
        "perihelion_distance": "1.125081174043071",
        "perihelion_argument": "3.488975781145541",
        "aphelion_distance": "3.785159013921291",
        "perihelion_time": "2458572.234045151165",
        "mean_anomaly": "109.7257388922249",
        "mean_motion": ".2562093429326053",
        "equinox": "J2000",
        "orbit_class": {
            "orbit_class_type": "AMO",
            "orbit_class_description": "Near-Earth asteroid orbits similar to that of 1221 Amor",
            "orbit_class_range": "1.017 AU < q (perihelion) < 1.3 AU"
        }
    },
    "is_sentry_object": false
}